start=new Date('2023-02-20T00:00:00.000Z').valueOf();
sats=[{"ECCENTRICITY":"0.00012200","APOAPSIS":"547.972","FILE":"3811610","RCS_SIZE":"LARGE","NORAD_CAT_ID":"45704","REF_FRAME":"TEME","EPHEMERIS_TYPE":"0","MEAN_MOTION_DDOT":"0.0000000000000","COUNTRY_CODE":"US","SITE":"AFETR","CENTER_NAME":"EARTH","CLASSIFICATION_TYPE":"U","SEMIMAJOR_AXIS":"6925.262","TLE_LINE2":"2 45704  53.0538  28.6453 0001220  95.4499 264.6629 15.06428201150795","DECAY_DATE":null,"TLE_LINE1":"1 45704U 20035AZ  23050.44825292  .00015262  00000-0  10405-2 0  9994","OBJECT_TYPE":"PAYLOAD","INCLINATION":"53.0538","MEAN_ELEMENT_THEORY":"SGP4","OBJECT_NAME":"STARLINK-1409","GP_ID":"226043052","MEAN_MOTION_DOT":"0.00015262","REV_AT_EPOCH":"15079","PERIAPSIS":"546.282","ELEMENT_SET_NO":"999","OBJECT_ID":"2020-035AZ","RA_OF_ASC_NODE":"28.6453","PERIOD":"95.590","ARG_OF_PERICENTER":"95.4499","EPOCH":"2023-02-19T10:45:29.052288","LAUNCH_DATE":"2020-06-04","MEAN_MOTION":"15.06428201","BSTAR":"0.00104050000000","MEAN_ANOMALY":"264.6629","TIME_SYSTEM":"UTC"},{"SEMIMAJOR_AXIS":"6925.266","CLASSIFICATION_TYPE":"U","CENTER_NAME":"EARTH","SITE":"AFETR","OBJECT_NAME":"STARLINK-1410","MEAN_ELEMENT_THEORY":"SGP4","INCLINATION":"53.0556","OBJECT_TYPE":"PAYLOAD","TLE_LINE1":"1 45705U 20035BA  23050.34230597  .00014759  00000-0  10069-2 0  9998","DECAY_DATE":null,"TLE_LINE2":"2 45705  53.0556  29.1137 0001063  82.5555 277.5555 15.06427045150769","EPHEMERIS_TYPE":"0","NORAD_CAT_ID":"45705","REF_FRAME":"TEME","FILE":"3811610","RCS_SIZE":"LARGE","APOAPSIS":"547.867","ECCENTRICITY":"0.00010630","COUNTRY_CODE":"US","MEAN_MOTION_DDOT":"0.0000000000000","MEAN_MOTION":"15.06427045","LAUNCH_DATE":"2020-06-04","EPOCH":"2023-02-19T08:12:55.235808","ARG_OF_PERICENTER":"82.5555","TIME_SYSTEM":"UTC","MEAN_ANOMALY":"277.5555","BSTAR":"0.00100690000000","GP_ID":"226043304","PERIOD":"95.590","RA_OF_ASC_NODE":"29.1137","OBJECT_ID":"2020-035BA","ELEMENT_SET_NO":"999","PERIAPSIS":"546.395","REV_AT_EPOCH":"15076","MEAN_MOTION_DOT":"0.00014759"},{"OBJECT_ID":"2020-035BB","RA_OF_ASC_NODE":"359.4529","PERIOD":"95.590","MEAN_MOTION_DOT":"0.00005150","PERIAPSIS":"546.050","ELEMENT_SET_NO":"999","REV_AT_EPOCH":"15117","GP_ID":"226043553","TIME_SYSTEM":"UTC","BSTAR":"0.00036413000000","MEAN_ANOMALY":"273.0270","EPOCH":"2023-02-19T06:25:24.604032","LAUNCH_DATE":"2020-06-04","MEAN_MOTION":"15.06427353","ARG_OF_PERICENTER":"87.0897","MEAN_MOTION_DDOT":"0.0000000000000","COUNTRY_CODE":"US","RCS_SIZE":"LARGE","FILE":"3811610","NORAD_CAT_ID":"45706","REF_FRAME":"TEME","EPHEMERIS_TYPE":"0","ECCENTRICITY":"0.00015590","APOAPSIS":"548.209","MEAN_ELEMENT_THEORY":"SGP4","INCLINATION":"53.0572","OBJECT_NAME":"STARLINK-1411","TLE_LINE2":"2 45706  53.0572 359.4529 0001559  87.0897 273.0270 15.06427353151174","DECAY_DATE":null,"OBJECT_TYPE":"PAYLOAD","TLE_LINE1":"1 45706U 20035BB  23050.26764588  .00005150  00000-0  36413-3 0  9999","CLASSIFICATION_TYPE":"U","SEMIMAJOR_AXIS":"6925.265","SITE":"AFETR","CENTER_NAME":"EARTH"},{"ECCENTRICITY":"0.00015840","APOAPSIS":"548.368","RCS_SIZE":"LARGE","FILE":"3811610","REF_FRAME":"TEME","NORAD_CAT_ID":"45707","EPHEMERIS_TYPE":"0","MEAN_MOTION_DDOT":"0.0000000000000","COUNTRY_CODE":"US","CENTER_NAME":"EARTH","SITE":"AFETR","CLASSIFICATION_TYPE":"U","SEMIMAJOR_AXIS":"6925.406","TLE_LINE2":"2 45707  53.0535 359.4757 0001584 132.6073 227.5049 15.06381149151189","DECAY_DATE":null,"TLE_LINE1":"1 45707U 20035BC  23050.26401111  .00017097  00000-0  11645-2 0  9992","OBJECT_TYPE":"PAYLOAD","INCLINATION":"53.0535","MEAN_ELEMENT_THEORY":"SGP4","OBJECT_NAME":"STARLINK-1412","GP_ID":"226042305","MEAN_MOTION_DOT":"0.00017097","ELEMENT_SET_NO":"999","PERIAPSIS":"546.174","REV_AT_EPOCH":"15118","OBJECT_ID":"2020-035BC","PERIOD":"95.593","RA_OF_ASC_NODE":"359.4757","ARG_OF_PERICENTER":"132.6073","EPOCH":"2023-02-19T06:20:10.559904","LAUNCH_DATE":"2020-06-04","MEAN_MOTION":"15.06381149","BSTAR":"0.00116450000000","MEAN_ANOMALY":"227.5049","TIME_SYSTEM":"UTC"},{"RA_OF_ASC_NODE":"358.1000","PERIOD":"95.592","OBJECT_ID":"2020-035BD","MEAN_MOTION_DOT":"-0.00011497","REV_AT_EPOCH":"15082","PERIAPSIS":"546.653","ELEMENT_SET_NO":"999","GP_ID":"226070339","TIME_SYSTEM":"UTC","BSTAR":"-0.00075419000000","MEAN_ANOMALY":"137.0234","MEAN_MOTION":"15.06400891","EPOCH":"2023-02-19T13:40:40.090080","LAUNCH_DATE":"2020-06-04","ARG_OF_PERICENTER":"223.0693","COUNTRY_CODE":"US","MEAN_MOTION_DDOT":"0.0000000000000","EPHEMERIS_TYPE":"0","RCS_SIZE":"LARGE","FILE":"3812683","NORAD_CAT_ID":"45708","REF_FRAME":"TEME","APOAPSIS":"547.768","ECCENTRICITY":"0.00008050","INCLINATION":"53.0547","MEAN_ELEMENT_THEORY":"SGP4","OBJECT_NAME":"STARLINK-1418","OBJECT_TYPE":"PAYLOAD","TLE_LINE1":"1 45708U 20035BD  23050.56990845 -.00011497  00000-0 -75419-3 0  9993","TLE_LINE2":"2 45708  53.0547 358.1000 0000805 223.0693 137.0234 15.06400891150825","DECAY_DATE":null,"SEMIMAJOR_AXIS":"6925.346","CLASSIFICATION_TYPE":"U","CENTER_NAME":"EARTH","SITE":"AFETR"},{"DECAY_DATE":null,"TLE_LINE2":"2 45709  53.0531 358.2349 0002688  88.9466 271.1831 15.06387236150812","TLE_LINE1":"1 45709U 20035BE  23050.54043763 -.00001522  00000-0 -83309-4 0  9996","OBJECT_TYPE":"PAYLOAD","OBJECT_NAME":"STARLINK-1421","INCLINATION":"53.0531","MEAN_ELEMENT_THEORY":"SGP4","CENTER_NAME":"EARTH","SITE":"AFETR","CLASSIFICATION_TYPE":"U","SEMIMAJOR_AXIS":"6925.388","MEAN_MOTION_DDOT":"0.0000000000000","COUNTRY_CODE":"US","ECCENTRICITY":"0.00026880","APOAPSIS":"549.114","NORAD_CAT_ID":"45709","REF_FRAME":"TEME","RCS_SIZE":"LARGE","FILE":"3812654","EPHEMERIS_TYPE":"0","MEAN_ANOMALY":"271.1831","BSTAR":"-0.00008330900000","TIME_SYSTEM":"UTC","ARG_OF_PERICENTER":"88.9466","LAUNCH_DATE":"2020-06-04","EPOCH":"2023-02-19T12:58:13.811232","MEAN_MOTION":"15.06387236","PERIAPSIS":"545.391","ELEMENT_SET_NO":"999","REV_AT_EPOCH":"15081","MEAN_MOTION_DOT":"-0.00001522","OBJECT_ID":"2020-035BE","PERIOD":"95.593","RA_OF_ASC_NODE":"358.2349","GP_ID":"226070072"},{"SEMIMAJOR_AXIS":"6925.306","CLASSIFICATION_TYPE":"U","SITE":"AFETR","CENTER_NAME":"EARTH","OBJECT_NAME":"STARLINK-1423","INCLINATION":"53.0534","MEAN_ELEMENT_THEORY":"SGP4","OBJECT_TYPE":"PAYLOAD","TLE_LINE1":"1 45710U 20035BF  23050.86847175  .00001595  00000-0  12591-3 0  9994","DECAY_DATE":null,"TLE_LINE2":"2 45710  53.0534 356.7642 0001283  90.1420 269.9716 15.06413939150863","EPHEMERIS_TYPE":"0","REF_FRAME":"TEME","NORAD_CAT_ID":"45710","FILE":"3812654","RCS_SIZE":"LARGE","APOAPSIS":"548.059","ECCENTRICITY":"0.00012830","COUNTRY_CODE":"US","MEAN_MOTION_DDOT":"0.0000000000000","MEAN_MOTION":"15.06413939","LAUNCH_DATE":"2020-06-04","EPOCH":"2023-02-19T20:50:35.959200","ARG_OF_PERICENTER":"90.1420","TIME_SYSTEM":"UTC","MEAN_ANOMALY":"269.9716","BSTAR":"0.00012591000000","GP_ID":"226070070","RA_OF_ASC_NODE":"356.7642","PERIOD":"95.591","OBJECT_ID":"2020-035BF","ELEMENT_SET_NO":"999","PERIAPSIS":"546.282","REV_AT_EPOCH":"15086","MEAN_MOTION_DOT":"0.00001595"},{"MEAN_MOTION_DDOT":"0.0000000000000","COUNTRY_CODE":"US","REF_FRAME":"TEME","NORAD_CAT_ID":"45711","FILE":"3812688","RCS_SIZE":"LARGE","EPHEMERIS_TYPE":"0","ECCENTRICITY":"0.00013230","APOAPSIS":"548.169","OBJECT_NAME":"STARLINK-1433","MEAN_ELEMENT_THEORY":"SGP4","INCLINATION":"53.0543","DECAY_DATE":null,"TLE_LINE2":"2 45711  53.0543 356.5452 0001323  95.6366 264.4774 15.06387174150871","TLE_LINE1":"1 45711U 20035BG  23050.91640439 -.00002918  00000-0 -17714-3 0  9999","OBJECT_TYPE":"PAYLOAD","CLASSIFICATION_TYPE":"U","SEMIMAJOR_AXIS":"6925.388","CENTER_NAME":"EARTH","SITE":"AFETR","OBJECT_ID":"2020-035BG","RA_OF_ASC_NODE":"356.5452","PERIOD":"95.593","REV_AT_EPOCH":"15087","PERIAPSIS":"546.337","ELEMENT_SET_NO":"999","MEAN_MOTION_DOT":"-0.00002918","GP_ID":"226070429","TIME_SYSTEM":"UTC","MEAN_ANOMALY":"264.4774","BSTAR":"-0.00017714000000","LAUNCH_DATE":"2020-06-04","EPOCH":"2023-02-19T21:59:37.339296","MEAN_MOTION":"15.06387174","ARG_OF_PERICENTER":"95.6366"},{"MEAN_MOTION":"15.06390826","EPOCH":"2023-02-19T13:56:37.147200","LAUNCH_DATE":"2020-06-04","ARG_OF_PERICENTER":"86.8358","TIME_SYSTEM":"UTC","BSTAR":"0.00012269000000","MEAN_ANOMALY":"273.2861","GP_ID":"226070083","PERIOD":"95.593","RA_OF_ASC_NODE":"358.0419","OBJECT_ID":"2020-035BH","MEAN_MOTION_DOT":"0.00001546","REV_AT_EPOCH":"15082","PERIAPSIS":"545.848","ELEMENT_SET_NO":"999","SEMIMAJOR_AXIS":"6925.377","CLASSIFICATION_TYPE":"U","SITE":"AFETR","CENTER_NAME":"EARTH","MEAN_ELEMENT_THEORY":"SGP4","INCLINATION":"53.0544","OBJECT_NAME":"STARLINK-1434","OBJECT_TYPE":"PAYLOAD","TLE_LINE1":"1 45712U 20035BH  23050.58098550  .00001546  00000-0  12269-3 0  9998","TLE_LINE2":"2 45712  53.0544 358.0419 0002013  86.8358 273.2861 15.06390826150821","DECAY_DATE":null,"EPHEMERIS_TYPE":"0","FILE":"3812661","RCS_SIZE":"LARGE","REF_FRAME":"TEME","NORAD_CAT_ID":"45712","APOAPSIS":"548.636","ECCENTRICITY":"0.00020130","COUNTRY_CODE":"US","MEAN_MOTION_DDOT":"0.0000000000000"},{"SITE":"AFETR","CENTER_NAME":"EARTH","CLASSIFICATION_TYPE":"U","SEMIMAJOR_AXIS":"6925.358","TLE_LINE2":"2 45713  53.0562  16.4669 0001811 108.3360 251.7826 15.06396805150591","DECAY_DATE":null,"TLE_LINE1":"1 45713U 20035BJ  23050.93298262 -.00000639  00000-0 -23987-4 0  9994","OBJECT_TYPE":"PAYLOAD","MEAN_ELEMENT_THEORY":"SGP4","INCLINATION":"53.0562","OBJECT_NAME":"STARLINK-1436","ECCENTRICITY":"0.00018110","APOAPSIS":"548.478","FILE":"3812661","RCS_SIZE":"LARGE","REF_FRAME":"TEME","NORAD_CAT_ID":"45713","EPHEMERIS_TYPE":"0","MEAN_MOTION_DDOT":"0.0000000000000","COUNTRY_CODE":"US","ARG_OF_PERICENTER":"108.3360","EPOCH":"2023-02-19T22:23:29.698368","LAUNCH_DATE":"2020-06-04","MEAN_MOTION":"15.06396805","BSTAR":"-0.00002398700000","MEAN_ANOMALY":"251.7826","TIME_SYSTEM":"UTC","GP_ID":"226069898","MEAN_MOTION_DOT":"-0.00000639","ELEMENT_SET_NO":"999","PERIAPSIS":"545.969","REV_AT_EPOCH":"15059","OBJECT_ID":"2020-035BJ","RA_OF_ASC_NODE":"16.4669","PERIOD":"95.592"}];
